#aV2021  1 14  0  0  0.00000000     288 DD+AD WGS84 FIT  NGA
## 2140 345600.00000000   300.00000000 59228 0.0000000000000
+   32     1  2  3  4  5  6  7  8  9 10 11 12 13 14 15 16 17
+         18 19 20 21 22 23 24 25 26 27 28 29 30 31 32  0  0
+          0  0  0  0  0  0  0  0  0  0  0  0  0  0  0  0  0
+          0  0  0  0  0  0  0  0  0  0  0  0  0  0  0  0  0
+          0  0  0  0  0  0  0  0  0  0  0  0  0  0  0  0  0
++         2  2  2  2  2  2  2  2  2  2  2  2  2  2  2  2  2
++         2  2  2  2  2  2  2  2  2  2  2  2  2  2  2  0  0
++         0  0  0  0  0  0  0  0  0  0  0  0  0  0  0  0  0
++         0  0  0  0  0  0  0  0  0  0  0  0  0  0  0  0  0
++         0  0  0  0  0  0  0  0  0  0  0  0  0  0  0  0  0
%c cc cc ccc ccc cccc cccc cccc cccc ccccc ccccc ccccc ccccc
%c cc cc ccc ccc cccc cccc cccc cccc ccccc ccccc ccccc ccccc
%f  0.0000000  0.000000000  0.00000000000  0.000000000000000
%f  0.0000000  0.000000000  0.00000000000  0.000000000000000
%i    0    0    0    0      0      0      0      0         0
%i    0    0    0    0      0      0      0      0         0
/*      NGA, ST. LOUIS,MO.                                  
/*   EPHEMERIS COMPUTED FROM 2 DAYS OF DATA                 
/*   EPOCHA v5 SMOOTHER                                     
/*   G2139 IERS2010 SATAF SATAPC                            
*  2021  1 14 19 50  0.00000000
P  1  -9300.636293 -13628.767955 -21129.176589    780.168629                    
V  1  26075.695730  -1811.065170 -10102.260634     -0.064463                    
P  2 -14764.097350  14285.422503  17498.204335   -565.976998                    
V  2 -20963.014231   1255.919079 -19446.767447     -0.041992                    
P  3 -12753.600883 -23167.238176  -3079.790635    -56.304265                    
V  3   4148.249777   1813.216619 -31540.205008     -0.098731                    
P  4  -2499.172513 -20284.873717  16936.786657   -172.714731                    
V  4  11844.052873 -18064.048803 -19939.499923     -0.029778                    
P  5  -2317.566034  18966.018958  18222.293876    -30.989421                    
V  5 -15064.169170 -18158.687499  17022.710917     -0.009984                    
P  6 -25055.983250   5950.693129   6664.783507     -4.581117                    
V  6  -8451.831718  -1488.233942 -30694.241588      0.001844                    
P  7 -22912.927307  -7428.231984  12048.219619     21.612784                    
V  7  14502.019558  -2888.988123  26047.826293      0.143790                    
P  8   3169.854732 -23886.275601 -10830.412628     -6.590368                    
V  8   8200.263018 -11435.680349  27883.589434     -0.014020                    
P  9 -12100.406510  -9929.466004  21390.495102   -312.731782                    
V  9  12210.057196 -24470.636838  -4460.317517     -0.040427                    
P 10  18169.475381   3724.452834 -19009.181539    -39.174368                    
V 10  12449.239370  20834.745998  15633.929824     -0.084672                    
P 11    232.710232 -18114.514459 -19973.764650    -53.009258                    
V 11  21622.303110 -11558.579522  10614.561237      0.105874                    
P 12   8575.601237  24396.918385  -6643.494458     12.949954                    
V 12  -5766.631572  -6013.267676 -30497.030556     -0.052335                    
P 13 -12822.741230  22981.324798  -3208.512685     85.911816                    
V 13  -4398.734359   1759.775564  31640.701791      0.041538                    
P 14 -18425.305863  -6011.651285 -18171.383943     85.396080                    
V 14 -10461.765497 -20611.206739  17429.238778      0.060210                    
P 15    576.485434  23835.940793 -11677.871467   -176.328252                    
V 15  -8158.679587  12448.222762  26157.653982      0.025908                    
P 16   4929.022786 -17673.072955  18794.224192   -265.095403                    
V 16  12926.201787  20840.078702  16462.366572     -0.055667                    
P 17 -17987.457076   8053.765277 -17364.586259    380.232009                    
V 17  10175.800803 -20528.321563 -19587.241061      0.048845                    
P 18  24126.994082   5723.031504   9593.264346    341.233941                    
V 18 -12066.022790   2787.283884  28611.754286      0.027520                    
P 19 -18882.399298  14020.543307 -12537.884817    -51.910299                    
V 19   6822.862969 -13996.071944 -26607.079348      0.050141                    
P 20  21150.625786  13109.540698  -9720.208816    525.164678                    
V 20   5883.192284  11104.064793  27680.113217     -0.001715                    
P 21   -397.849883 -15023.094803 -21149.154145     86.807901                    
V 21  28462.508979  -3361.920821   2189.408207      0.033376                    
P 22  -7968.201060 -22831.857048 -10970.525678   -698.194680                    
V 22  11318.951142   9145.506767 -26610.013223      0.067159                    
P 23  19545.596014  13487.598247 -11958.483273    116.042797                    
V 23   6800.289295  13701.702026  26587.422038      0.015248                    
P 24   4690.016849  15343.513243 -21428.235090      3.672837                    
V 24 -26497.099725   3549.675013  -2900.865819     -0.005069                    
P 25  17503.136962  19278.175553   5688.787150     59.775089                    
V 25   2074.056008   7606.146039 -30526.853458      0.076985                    
P 26  12896.926368  -8714.588756  21479.305245     29.923810                    
V 26  16089.337630  22228.716417   -380.014600      0.056782                    
P 27  12301.462679 -23291.606247    919.609919    -56.013296                    
V 27   1736.068582   2386.878575  32320.047826     -0.077451                    
P 28 -16851.569941  -3271.706784 -19647.668608    629.710700                    
V 28 -11282.024492 -23702.066915  13426.260361     -0.051179                    
P 29  10138.518876  11253.494888  21775.576809   -275.784814                    
V 29 -14417.115118  23626.471921  -5527.914213     -0.072405                    
P 30 -26653.583417    -96.014586   1281.329568   -368.920266                    
V 30   1461.258103  -3420.394024  31018.522745     -0.060583                    
P 31  24287.482981  -7043.037055   8787.165408    -93.889078                    
V 31  11207.612015   1981.137925 -28675.851714     -0.023265                    
P 32  17939.189600  -9163.948802 -17133.258074     14.281439                    
V 32  -7962.733549  20608.227033 -19419.930236      0.020045                    
EOF
